{"type": "FeatureCollection", "features": [ {"type": "Feature", "properties": {"norad_id": 31568, "name": "FENGYUN 1C DEB", "group": "fengyun-1c-debris", "lat": -27.9170170880316, "lon": -129.32535783430467, "alt_km": 970.4106594252944, "timestamp": "2025-12-09T04:51:47.776243+00:00", "meta": {"OBJECT_NAME": "FENGYUN 1C DEB", "OBJECT_ID": "1999-025BZK", "EPOCH": "2025-11-27T22:38:02.918112", "MEAN_MOTION": 14.03182798, "ECCENTRICITY": 0.0121792, "INCLINATION": 102.0468, "RA_OF_ASC_NODE": 209.318, "ARG_OF_PERICENTER": 158.3893, "MEAN_ANOMALY": 202.2464, "EPHEMERIS_TYPE": 0, "CLASSIFICATION_TYPE": "U", "NORAD_CAT_ID": 31568, "ELEMENT_SET_NO": 999, "REV_AT_EPOCH": 94372, "BSTAR": 0.0028015, "MEAN_MOTION_DOT": 4.595e-05, "MEAN_MOTION_DDOT": 0}, "tle": {"line1": "1 31568U 99025BZK 25331.94308933  .00004595  00000+0  28015-2 0  9991", "line2": "2 31568 102.0468 209.3180 0121792 158.3893 202.2464 14.03182798943726"}}, "geometry": {"type": "Point", "coordinates": [-129.32535783430467, -27.9170170880316]}}, {"type": "Feature", "properties": {"norad_id": 31569, "name": "FENGYUN 1C DEB", "group": "fengyun-1c-debris", "lat": -67.9215715394304, "lon": -74.38678369865896, "alt_km": 983.9706365724041, "timestamp": "2025-12-09T04:51:47.776253+00:00", "meta": {"OBJECT_NAME": "FENGYUN 1C DEB", "OBJECT_ID": "1999-025BZL", "EPOCH": "2025-11-30T05:24:01.468800", "MEAN_MOTION": 13.95405103, "ECCENTRICITY": 0.01728622, "INCLINATION": 102.6164, "RA_OF_ASC_NODE": 126.885, "ARG_OF_PERICENTER": 36.2337, "MEAN_ANOMALY": 138.7821, "EPHEMERIS_TYPE": 0, "CLASSIFICATION_TYPE": "U", "NORAD_CAT_ID": 31569, "ELEMENT_SET_NO": 999, "REV_AT_EPOCH": 93504, "BSTAR": 0.0023090613, "MEAN_MOTION_DOT": 3.477e-05, "MEAN_MOTION_DDOT": 0}, "tle": {"line1": "1 31569U 99025BZL 25334.22501700  .00003477  00000+0  23091-2 0  9990", "line2": "2 31569 102.6164 126.8850 0172862  36.2337 138.7821 13.95405103935048"}}, "geometry": {"type": "Point", "coordinates": [-74.38678369865896, -67.9215715394304]}}, {"type": "Feature", "properties": {"norad_id": 31570, "name": "FENGYUN 1C DEB", "group": "fengyun-1c-debris", "lat": 61.51906974503791, "lon": -135.10171795171894, "alt_km": 850.0510260984374, "timestamp": "2025-12-09T04:51:47.776263+00:00", "meta": {"OBJECT_NAME": "FENGYUN 1C DEB", "OBJECT_ID": "1999-025BZM", "EPOCH": "2025-12-08T08:05:21.380064", "MEAN_MOTION": 14.25110084, "ECCENTRICITY": 0.01541377, "INCLINATION": 102.5654, "RA_OF_ASC_NODE": 19.3892, "ARG_OF_PERICENTER": 234.4422, "MEAN_ANOMALY": 124.229, "EPHEMERIS_TYPE": 0, "CLASSIFICATION_TYPE": "U", "NORAD_CAT_ID": 31570, "ELEMENT_SET_NO": 999, "REV_AT_EPOCH": 63304, "BSTAR": 0.0030419065, "MEAN_MOTION_DOT": 8.009e-05, "MEAN_MOTION_DDOT": 0}, "tle": {"line1": "1 31570U 99025BZM 25342.33705301  .00008009  00000+0  30419-2 0  9994", "line2": "2 31570 102.5654  19.3892 0154137 234.4422 124.2290 14.25110084633047"}}, "geometry": {"type": "Point", "coordinates": [-135.10171795171894, 61.51906974503791]}}, {"type": "Feature", "properties": {"norad_id": 31608, "name": "FENGYUN 1C DEB", "group": "fengyun-1c-debris", "lat": 14.260307412787004, "lon": -76.6969848663577, "alt_km": 656.3564235609838, "timestamp": "2025-12-09T04:51:47.776274+00:00", "meta": {"OBJECT_NAME": "FENGYUN 1C DEB", "OBJECT_ID": "1999-025BZN", "EPOCH": "2025-12-04T14:13:29.603136", "MEAN_MOTION": 14.85679772, "ECCENTRICITY": 0.0146671, "INCLINATION": 98.3801, "RA_OF_ASC_NODE": 96.302, "ARG_OF_PERICENTER": 63.9077, "MEAN_ANOMALY": 297.7147, "EPHEMERIS_TYPE": 0, "CLASSIFICATION_TYPE": "U", "NORAD_CAT_ID": 31608, "ELEMENT_SET_NO": 999, "REV_AT_EPOCH": 98512, "BSTAR": 0.0015593, "MEAN_MOTION_DOT": 0.00016394, "MEAN_MOTION_DDOT": 0}, "tle": {"line1": "1 31608U 99025BZN 25338.59270374  .00016394  00000+0  15593-2 0  9998", "line2": "2 31608  98.3801  96.3020 0146671  63.9077 297.7147 14.85679772985124"}}, "geometry": {"type": "Point", "coordinates": [-76.6969848663577, 14.260307412787004]}}, {"type": "Feature", "properties": {"norad_id": 31609, "name": "FENGYUN 1C DEB", "group": "fengyun-1c-debris", "lat": 13.038917393318291, "lon": -166.23759729801682, "alt_km": 906.7003706797104, "timestamp": "2025-12-09T04:51:47.776284+00:00", "meta": {"OBJECT_NAME": "FENGYUN 1C DEB", "OBJECT_ID": "1999-025BZP", "EPOCH": "2025-12-07T01:19:25.751424", "MEAN_MOTION": 14.156767, "ECCENTRICITY": 0.0094908, "INCLINATION": 99.216, "RA_OF_ASC_NODE": 9.388, "ARG_OF_PERICENTER": 336.5905, "MEAN_ANOMALY": 51.8314, "EPHEMERIS_TYPE": 0, "CLASSIFICATION_TYPE": "U", "NORAD_CAT_ID": 31609, "ELEMENT_SET_NO": 999, "REV_AT_EPOCH": 66004, "BSTAR": 0.0037519883, "MEAN_MOTION_DOT": 7.643e-05, "MEAN_MOTION_DDOT": 0}, "tle": {"line1": "1 31609U 99025BZP 25341.05515916  .00007643  00000+0  37520-2 0  9999", "line2": "2 31609  99.2160   9.3880 0094908 336.5905  51.8314 14.15676700660042"}}, "geometry": {"type": "Point", "coordinates": [-166.23759729801682, 13.038917393318291]}}, {"type": "Feature", "properties": {"norad_id": 31612, "name": "FENGYUN 1C DEB", "group": "fengyun-1c-debris", "lat": 26.942304074570668, "lon": 82.44609156650698, "alt_km": 347.09317905468106, "timestamp": "2025-12-09T04:51:47.776294+00:00", "meta": {"OBJECT_NAME": "FENGYUN 1C DEB", "OBJECT_ID": "1999-025BZS", "EPOCH": "2025-11-26T23:13:26.859936", "MEAN_MOTION": 15.63030412, "ECCENTRICITY": 0.0034124, "INCLINATION": 100.3408, "RA_OF_ASC_NODE": 239.2079, "ARG_OF_PERICENTER": 150.8693, "MEAN_ANOMALY": 209.4468, "EPHEMERIS_TYPE": 0, "CLASSIFICATION_TYPE": "U", "NORAD_CAT_ID": 31612, "ELEMENT_SET_NO": 999, "REV_AT_EPOCH": 99915, "BSTAR": 0.0020210875, "MEAN_MOTION_DOT": 0.00192851, "MEAN_MOTION_DDOT": 0}, "tle": {"line1": "1 31612U 99025BZS 25330.96767199  .00192851  00000+0  20211-2 0  9998", "line2": "2 31612 100.3408 239.2079 0034124 150.8693 209.4468 15.63030412999150"}}, "geometry": {"type": "Point", "coordinates": [82.44609156650698, 26.942304074570668]}}, {"type": "Feature", "properties": {"norad_id": 31613, "name": "FENGYUN 1C DEB", "group": "fengyun-1c-debris", "lat": 74.57854493478263, "lon": 23.208484895808873, "alt_km": 767.9820006478767, "timestamp": "2025-12-09T04:51:47.776304+00:00", "meta": {"OBJECT_NAME": "FENGYUN 1C DEB", "OBJECT_ID": "1999-025BZT", "EPOCH": "2025-12-07T06:34:51.947904", "MEAN_MOTION": 13.63418054, "ECCENTRICITY": 0.03428009, "INCLINATION": 98.4242, "RA_OF_ASC_NODE": 169.0409, "ARG_OF_PERICENTER": 120.5223, "MEAN_ANOMALY": 243.0233, "EPHEMERIS_TYPE": 0, "CLASSIFICATION_TYPE": "U", "NORAD_CAT_ID": 31613, "ELEMENT_SET_NO": 999, "REV_AT_EPOCH": 91687, "BSTAR": 0.0020758849, "MEAN_MOTION_DOT": 2.402e-05, "MEAN_MOTION_DDOT": 0}, "tle": {"line1": "1 31613U 99025BZT 25341.27421236  .00002402  00000+0  20759-2 0  9993", "line2": "2 31613  98.4242 169.0409 0342800 120.5223 243.0233 13.63418054916879"}}, "geometry": {"type": "Point", "coordinates": [23.208484895808873, 74.57854493478263]}}, {"type": "Feature", "properties": {"norad_id": 31614, "name": "FENGYUN 1C DEB", "group": "fengyun-1c-debris", "lat": -68.09613825013557, "lon": 45.327212600008544, "alt_km": 593.8236777872316, "timestamp": "2025-12-09T04:51:47.776314+00:00", "meta": {"OBJECT_NAME": "FENGYUN 1C DEB", "OBJECT_ID": "1999-025BZU", "EPOCH": "2025-12-08T16:49:17.675328", "MEAN_MOTION": 14.96292226, "ECCENTRICITY": 0.0022411, "INCLINATION": 98.9738, "RA_OF_ASC_NODE": 247.8951, "ARG_OF_PERICENTER": 15.0423, "MEAN_ANOMALY": 53.8986, "EPHEMERIS_TYPE": 0, "CLASSIFICATION_TYPE": "U", "NORAD_CAT_ID": 31614, "ELEMENT_SET_NO": 999, "REV_AT_EPOCH": 96369, "BSTAR": 0.0099062, "MEAN_MOTION_DOT": 0.00114212, "MEAN_MOTION_DDOT": 0}, "tle": {"line1": "1 31614U 99025BZU 25342.70089902  .00114212  00000+0  99062-2 0  9999", "line2": "2 31614  98.9738 247.8951 0022411  15.0423  53.8986 14.96292226963697"}}, "geometry": {"type": "Point", "coordinates": [45.327212600008544, -68.09613825013557]}}, {"type": "Feature", "properties": {"norad_id": 31615, "name": "FENGYUN 1C DEB", "group": "fengyun-1c-debris", "lat": 37.004959577792924, "lon": -138.60958970742664, "alt_km": 889.7475476027239, "timestamp": "2025-12-09T04:51:47.776325+00:00", "meta": {"OBJECT_NAME": "FENGYUN 1C DEB", "OBJECT_ID": "1999-025BZV", "EPOCH": "2025-12-08T09:47:37.615200", "MEAN_MOTION": 14.35212582, "ECCENTRICITY": 0.01657905, "INCLINATION": 99.137, "RA_OF_ASC_NODE": 33.5823, "ARG_OF_PERICENTER": 329.5001, "MEAN_ANOMALY": 29.6619, "EPHEMERIS_TYPE": 0, "CLASSIFICATION_TYPE": "U", "NORAD_CAT_ID": 31615, "ELEMENT_SET_NO": 999, "REV_AT_EPOCH": 65216, "BSTAR": 0.0036834111, "MEAN_MOTION_DOT": 0.00012276, "MEAN_MOTION_DDOT": 0}, "tle": {"line1": "1 31615U 99025BZV 25342.40807425  .00012276  00000+0  36834-2 0  9990", "line2": "2 31615  99.1370  33.5823 0165790 329.5001  29.6619 14.35212582652165"}}, "geometry": {"type": "Point", "coordinates": [-138.60958970742664, 37.004959577792924]}}, {"type": "Feature", "properties": {"norad_id": 31618, "name": "FENGYUN 1C DEB", "group": "fengyun-1c-debris", "lat": 29.33233503996192, "lon": 120.52336777418287, "alt_km": 752.3616480681849, "timestamp": "2025-12-09T04:51:47.776335+00:00", "meta": {"OBJECT_NAME": "FENGYUN 1C DEB", "OBJECT_ID": "1999-025BZY", "EPOCH": "2025-12-07T15:33:01.488960", "MEAN_MOTION": 14.21009291, "ECCENTRICITY": 0.01572194, "INCLINATION": 99.4425, "RA_OF_ASC_NODE": 124.228, "ARG_OF_PERICENTER": 340.4885, "MEAN_ANOMALY": 19.0314, "EPHEMERIS_TYPE": 0, "CLASSIFICATION_TYPE": "U", "NORAD_CAT_ID": 31618, "ELEMENT_SET_NO": 999, "REV_AT_EPOCH": 70192, "BSTAR": 0.00047528685, "MEAN_MOTION_DOT": 1.116e-05, "MEAN_MOTION_DDOT": 0}, "tle": {"line1": "1 31618U 99025BZY 25341.64793390  .00001116  00000+0  47529-3 0  9998", "line2": "2 31618  99.4425 124.2280 0157219 340.4885  19.0314 14.21009291701926"}}, "geometry": {"type": "Point", "coordinates": [120.52336777418287, 29.33233503996192]}}]}